[{"OBJECT_NAME":"STARLINK-6335","OBJECT_ID":"2023-065AA","EPOCH":"2026-03-09T10:45:54.897984","MEAN_MOTION":15.0253628,"ECCENTRICITY":0.00012012,"INCLINATION":43.0007,"RA_OF_ASC_NODE":211.1962,"ARG_OF_PERICENTER":265.9221,"MEAN_ANOMALY":94.1484,"EPHEMERIS_TYPE":0,"CLASSIFICATION_TYPE":"U","NORAD_CAT_ID":56527,"ELEMENT_SET_NO":999,"REV_AT_EPOCH":15659,"BSTAR":2.1691602e-5,"MEAN_MOTION_DOT":8.9e-7,"MEAN_MOTION_DDOT":0},{"OBJECT_NAME":"DELTA 1 DEB","OBJECT_ID":"1972-058BG","EPOCH":"2026-03-09T20:01:49.581696","MEAN_MOTION":14.88535429,"ECCENTRICITY":0.00965988,"INCLINATION":98.8237,"RA_OF_ASC_NODE":167.9558,"ARG_OF_PERICENTER":346.289,"MEAN_ANOMALY":13.5703,"EPHEMERIS_TYPE":0,"CLASSIFICATION_TYPE":"U","NORAD_CAT_ID":7890,"ELEMENT_SET_NO":999,"REV_AT_EPOCH":62566,"BSTAR":0.0011014398,"MEAN_MOTION_DOT":0.00011112,"MEAN_MOTION_DDOT":0}]
